{
  "type": "FeatureCollection",
  "features": [
    {
      "type": "Feature",
      "properties": {
        "@circle": {
          "type": "WGS84",
          "center": [
            8.7850176,
            47.1217667
          ]
        }
      },
      "geometry": {
        "type": "Polygon",
        "coordinates": [
          [
            [
              8.7850176,
              47.1217667
            ],
            [
              8.7850176,
              47.1217667
            ],
            [
              8.7850176,
              47.1217667
            ],
            [
              8.7850176,
              47.1217667
            ]
          ]
        ]
      }
    },
    {
      "type": "Feature",
      "properties": {
        "@circle": {
          "type": "Mercator",
          "center": [
            9.84944,
            46.81472
          ]
        }
      },
      "geometry": {
        "type": "Polygon",
        "coordinates": [
          [
            [
              10.07073077654734,
              46.92791149999999
            ],
            [
              10.069910053481506,
              46.94574350207779
            ],
            [
              10.067451123302988,
              46.96349922632679
            ],
            [
              10.063363690285827,
              46.98110870402763
            ],
            [
              10.05766388566077,
              46.998502611624176
            ],
            [
              10.050374203952675,
              47.015612541578776
            ],
            [
              10.04152341420491,
              47.03237126858372
            ],
            [
              10.031146446441063,
              47.04871301013749
            ],
            [
              10.01928425381212,
              47.06457368053257
            ],
            [
              10.00598365097306,
              47.079891137340795
            ],
            [
              9.991297129326828,
              47.09460541952546
            ],
            [
              9.975282649864722,
              47.10865897635275
            ],
            [
              9.95800341442086,
              47.12199688632109
            ],
            [
              9.939527616243408,
              47.13456706537371
            ],
            [
              9.919928170866985,
              47.146320463707134
            ],
            [
              9.899282428348357,
              47.15721125053682
            ],
            [
              9.877671868001102,
              47.16719698622959
            ],
            [
              9.85518177683398,
              47.1762387812611
            ],
            [
              9.831900912962087,
              47.18430144150561
            ],
            [
              9.80792115531911,
              47.19135359941341
            ],
            [
              9.783337141053158,
              47.19736783067982
            ],
            [
              9.758245892037166,
              47.20232075605754
            ],
            [
              9.732746431967904,
              47.20619312801141
            ],
            [
              9.70693939556467,
              47.20896990196209
            ],
            [
              9.68092663141003,
              47.21064029191168
            ],
            [
              9.654810800000002,
              47.211197810290635
            ],
            [
              9.628694968589974,
              47.21064029191168
            ],
            [
              9.602682204435332,
              47.20896990196209
            ],
            [
              9.576875168032098,
              47.20619312801141
            ],
            [
              9.551375707962833,
              47.20232075605754
            ],
            [
              9.526284458946844,
              47.19736783067982
            ],
            [
              9.50170044468089,
              47.19135359941341
            ],
            [
              9.477720687037914,
              47.18430144150561
            ],
            [
              9.454439823166021,
              47.17623878126109
            ],
            [
              9.4319497319989,
              47.16719698622959
            ],
            [
              9.410339171651644,
              47.15721125053682
            ],
            [
              9.389693429133015,
              47.146320463707134
            ],
            [
              9.370093983756592,
              47.13456706537371
            ],
            [
              9.351618185579142,
              47.12199688632109
            ],
            [
              9.334338950135281,
              47.10865897635275
            ],
            [
              9.318324470673174,
              47.09460541952546
            ],
            [
              9.303637949026939,
              47.079891137340795
            ],
            [
              9.290337346187881,
              47.06457368053257
            ],
            [
              9.278475153558936,
              47.04871301013749
            ],
            [
              9.268098185795091,
              47.03237126858372
            ],
            [
              9.259247396047327,
              47.015612541578776
            ],
            [
              9.251957714339232,
              46.998502611624176
            ],
            [
              9.246257909714174,
              46.98110870402763
            ],
            [
              9.242170476697014,
              46.96349922632679
            ],
            [
              9.239711546518496,
              46.94574350207779
            ],
            [
              9.238890823452662,
              46.92791149999999
            ],
            [
              9.239711546518496,
              46.91007355950236
            ],
            [
              9.242170476697014,
              46.892300113648474
            ],
            [
              9.246257909714174,
              46.87466141064444
            ],
            [
              9.251957714339232,
              46.85722723495721
            ],
            [
              9.259247396047327,
              46.84006662918978
            ],
            [
              9.268098185795091,
              46.823247617853575
            ],
            [
              9.278475153558936,
              46.80683693418726
            ],
            [
              9.290337346187881,
              46.790899751174145
            ],
            [
              9.303637949026939,
              46.77549941790878
            ],
            [
              9.318324470673174,
              46.76069720245391
            ],
            [
              9.334338950135281,
              46.74655204231557
            ],
            [
              9.351618185579142,
              46.733120303642714
            ],
            [
              9.370093983756592,
              46.72045555023118
            ],
            [
              9.389693429133015,
              46.7086083233786
            ],
            [
              9.410339171651644,
              46.697625933596946
            ],
            [
              9.4319497319989,
              46.68755226514421
            ],
            [
              9.454439823166021,
              46.67842759428489
            ],
            [
              9.477720687037914,
              46.67028842213123
            ],
            [
              9.50170044468089,
              46.663167322854775
            ],
            [
              9.526284458946844,
              46.65709280798925
            ],
            [
              9.551375707962833,
              46.65208920747312
            ],
            [
              9.576875168032098,
              46.648176568002874
            ],
            [
              9.602682204435332,
              46.645370569187115
            ],
            [
              9.628694968589974,
              46.64368245790702
            ],
            [
              9.654810800000002,
              46.64311900120164
            ],
            [
              9.68092663141003,
              46.64368245790702
            ],
            [
              9.70693939556467,
              46.645370569187115
            ],
            [
              9.732746431967904,
              46.648176568002874
            ],
            [
              9.758245892037166,
              46.65208920747312
            ],
            [
              9.783337141053158,
              46.65709280798925
            ],
            [
              9.80792115531911,
              46.663167322854775
            ],
            [
              9.831900912962087,
              46.67028842213123
            ],
            [
              9.85518177683398,
              46.67842759428489
            ],
            [
              9.877671868001102,
              46.68755226514421
            ],
            [
              9.899282428348357,
              46.697625933596946
            ],
            [
              9.919928170866985,
              46.7086083233786
            ],
            [
              9.939527616243408,
              46.72045555023118
            ],
            [
              9.95800341442086,
              46.733120303642714
            ],
            [
              9.975282649864722,
              46.74655204231557
            ],
            [
              9.991297129326828,
              46.76069720245391
            ],
            [
              10.00598365097306,
              46.77549941790878
            ],
            [
              10.01928425381212,
              46.790899751174145
            ],
            [
              10.031146446441063,
              46.80683693418726
            ],
            [
              10.04152341420491,
              46.823247617853575
            ],
            [
              10.050374203952675,
              46.84006662918978
            ],
            [
              10.057663885660766,
              46.85722723495721
            ],
            [
              10.063363690285827,
              46.87466141064444
            ],
            [
              10.067451123302988,
              46.892300113648474
            ],
            [
              10.07073077654734,
              46.92791149999999
            ]
          ]
        ]
      }
    }
  ]
}